NORAD_CAT_ID,OBJECT_NAME,OBJECT_TYPE,EPOCH,MEAN_MOTION,ECCENTRICITY,INCLINATION,RA_OF_ASC_NODE,ARG_OF_PERICENTER,MEAN_ANOMALY,BSTAR,MEAN_MOTION_DOT,MEAN_MOTION_DDOT,TLE_LINE0,TLE_LINE1,TLE_LINE2,SEMIMAJOR_AXIS,PERIOD,APOGEE,PERIGEE,DECAYED
50176.0,STARLINK-3293,PAYLOAD,2022-12-16 19:31:20,15.08836628,0.0002478,53.2139,141.3095,27.2383,332.8739,0.00016067,2.269e-05,0.0,0 STARLINK-3293,1 50176U 21125W   22350.81342893  .00002269  00000-0  16067-3 0  9992,2 50176  53.2139 141.3095 0002478  27.2383 332.8739 15.08836628 55544,6917.891,95.438,541.47,538.0409999999998,0.0
50176.0,STARLINK-3293,PAYLOAD,2022-12-17 11:25:11,15.08832101,0.0002515,53.2135,138.3358,28.3511,331.7618,-1.7398e-05,-5.65e-06,0.0,0 STARLINK-3293,1 50176U 21125W   22351.47583291 -.00000565  00000-0 -17398-4 0  9992,2 50176  53.2135 138.3358 0002515  28.3511 331.7618 15.08832101 58779,6917.905,95.438,541.509,538.03,0.0
50176.0,STARLINK-3293,PAYLOAD,2022-12-17 17:46:44,15.08834307,0.0002516,53.2142,137.1464,28.6784,331.4347,2.4441e-05,1.01e-06,0.0,0 STARLINK-3293,1 50176U 21125W   22351.74079449  .00000101  00000-0  24441-4 0  9998,2 50176  53.2142 137.1464 0002516  28.6784 331.4347 15.08834307 55681,6917.898,95.438,541.503,538.0219999999998,0.0
50176.0,STARLINK-3293,PAYLOAD,2022-12-18 04:54:26,15.08843735,0.0001981,53.214,135.0649,27.785,332.3248,4.6247e-05,4.48e-06,0.0,0 STARLINK-3293,1 50176U 21125W   22352.20446993  .00000448  00000-0  46247-4 0  9994,2 50176  53.2140 135.0649 0001981  27.7850 332.3248 15.08843735 55753,6917.869000000002,95.437,541.104,538.364,0.0
50176.0,STARLINK-3293,PAYLOAD,2022-12-18 11:15:59,15.08829481,0.000289,53.2141,133.8753,25.0377,335.0755,8.403700000000001e-05,1.049e-05,0.0,0 STARLINK-3293,1 50176U 21125W   22352.46944064  .00001049  00000-0  84037-4 0  9991,2 50176  53.2141 133.8753 0002890  25.0377 335.0755 15.08829481 58928,6917.913000000001,95.438,541.7769999999998,537.778,0.0
50176.0,STARLINK-3293,PAYLOAD,2022-12-18 19:12:55,15.08831334,0.0002514,53.214,132.3883,26.2161,333.8958,6.5027e-05,7.46e-06,0.0,0 STARLINK-3293,1 50176U 21125W   22352.80064120  .00000746  00000-0  65027-4 0  9996,2 50176  53.2140 132.3883 0002514  26.2161 333.8958 15.08831334 58978,6917.906999999997,95.438,541.511,538.033,0.0
50176.0,STARLINK-3293,PAYLOAD,2022-12-19 11:06:46,15.08851736,0.0002652,53.2136,129.4147,25.7598,334.3526,0.00067957,0.00010547,0.0,0 STARLINK-3293,1 50176U 21125W   22353.46303871  .00010547  00000-0  67957-3 0  9991,2 50176  53.2136 129.4147 0002652  25.7598 334.3526 15.08851736 55943,6917.845,95.437,541.544,537.875,0.0
50176.0,STARLINK-3293,PAYLOAD,2022-12-19 19:03:42,15.08845111,0.0002496,53.2139,127.9279,23.5364,336.5742,0.00043576,6.655e-05,0.0,0 STARLINK-3293,1 50176U 21125W   22353.79424008  .00006655  00000-0  43576-3 0  9999,2 50176  53.2139 127.9279 0002496  23.5364 336.5742 15.08845111 59126,6917.865,95.437,541.456,538.003,0.0
50176.0,STARLINK-3293,PAYLOAD,2022-12-20 12:32:56,15.08863346,0.0002725,53.2142,124.6569,24.3768,335.7353,0.00088123,0.00013774,0.0,0 STARLINK-3293,1 50176U 21125W   22354.52287430  .00013774  00000-0  88123-3 0  9994,2 50176  53.2142 124.6569 0002725  24.3768 335.7353 15.08863346 59239,6917.809,95.436,541.559,537.789,0.0
50176.0,STARLINK-3293,PAYLOAD,2022-12-21 09:12:57,15.08839364,0.000255,53.2141,120.7901,23.0842,337.0264,0.00012989,1.779e-05,0.0,0 STARLINK-3293,1 50176U 21125W   22355.38399824  .00001779  00000-0  12989-3 0  9999,2 50176  53.2141 120.7901 0002550  23.0842 337.0264 15.08839364 56236,6917.882,95.438,541.511,537.9830000000002,0.0
50176.0,STARLINK-3293,PAYLOAD,2022-12-21 17:09:53,15.08828356,0.0002409,53.2149,119.3025,29.9072,330.2058,-0.0001631999999999,-2.884e-05,0.0,0 STARLINK-3293,1 50176U 21125W   22355.71520396 -.00002884  00000-0 -16320-3 0  9999,2 50176  53.2149 119.3025 0002409  29.9072 330.2058 15.08828356 56288,6917.916,95.438,541.448,538.114,0.0
50176.0,STARLINK-3293,PAYLOAD,2022-12-22 01:06:49,15.08835373,0.0002654,53.2147,117.8174,25.3857,334.7266,2.2019e-05,6.2e-07,0.0,0 STARLINK-3293,1 50176U 21125W   22356.04640402  .00000062  00000-0  22019-4 0  9994,2 50176  53.2147 117.8174 0002654  25.3857 334.7266 15.08835373 56330,6917.895,95.438,541.596,537.924,0.0
50176.0,STARLINK-3293,PAYLOAD,2022-12-22 15:25:17,15.08843289,0.0002676,53.2149,115.1405,26.8859,333.2272,5.1219e-05,5.27e-06,0.0,0 STARLINK-3293,1 50176U 21125W   22356.64255984  .00000527  00000-0  51219-4 0  9997,2 50176  53.2149 115.1405 0002676  26.8859 333.2272 15.08843289 56428,6917.87,95.437,541.587,537.884,0.0
50176.0,STARLINK-3293,PAYLOAD,2022-12-23 12:05:19,15.08822849,0.0002803,53.2158,111.2755,25.9063,334.2069,0.00014583,2.032e-05,0.0,0 STARLINK-3293,1 50176U 21125W   22357.50369670  .00002032  00000-0  14583-3 0  9996,2 50176  53.2158 111.2755 0002803  25.9063 334.2069 15.08822849 59687,6917.933000000001,95.439,541.737,537.859,0.0
50176.0,STARLINK-3293,PAYLOAD,2022-12-23 13:40:42,15.08830448,0.0002783,53.2159,110.9782,25.7042,334.4088,8.5114e-05,1.066e-05,0.0,0 STARLINK-3293,1 50176U 21125W   22357.56993390  .00001066  00000-0  85114-4 0  9999,2 50176  53.2159 110.9782 0002783  25.7042 334.4088 15.08830448 56567,6917.91,95.438,541.7,537.849,0.0
50176.0,STARLINK-3293,PAYLOAD,2022-12-23 16:51:26,15.08904089,0.0002448,53.2157,110.3829,24.3058,335.8049,-0.00097079,-0.00015733,0.0,0 STARLINK-3293,1 50176U 21125W   22357.70238513 -.00015733  00000-0 -97079-3 0  9994,2 50176  53.2157 110.3829 0002448  24.3058 335.8049 15.08904089 59716,6917.685,95.434,541.243,537.856,0.0
50176.0,STARLINK-3293,PAYLOAD,2022-12-24 00:48:23,15.08843625,0.0002924,53.2158,108.8963,27.4782,332.6364,0.00019435,2.806e-05,0.0,0 STARLINK-3293,1 50176U 21125W   22358.03360611  .00002806  00000-0  19435-3 0  9991,2 50176  53.2158 108.8963 0002924  27.4782 332.6364 15.08843625 56636,6917.869000000002,95.437,541.757,537.712,0.0
50176.0,STARLINK-3293,PAYLOAD,2022-12-24 10:20:42,15.08846683,0.0002856999999999,53.2153,107.1108,24.563,335.5498,0.00013638,1.883e-05,0.0,0 STARLINK-3293,1 50176U 21125W   22358.43104303  .00001883  00000-0  13638-3 0  9992,2 50176  53.2153 107.1108 0002857  24.5630 335.5498 15.08846683 59820,6917.86,95.437,541.701,537.749,0.0
50176.0,STARLINK-3293,PAYLOAD,2022-12-24 13:31:28,15.08846648,0.0003032,53.215,106.5171,24.8788,335.235,0.00013917,1.927e-05,0.0,0 STARLINK-3293,1 50176U 21125W   22358.56352359  .00001927  00000-0  13917-3 0  9991,2 50176  53.2150 106.5171 0003032  24.8788 335.2350 15.08846648 59840,6917.86,95.437,541.823,537.628,0.0
50176.0,STARLINK-3293,PAYLOAD,2022-12-25 00:39:10,15.08846871,0.0003013999999999,53.2148,104.4361,27.1844,332.9306,0.00018193,2.609e-05,0.0,0 STARLINK-3293,1 50176U 21125W   22359.02720314  .00002609  00000-0  18193-3 0  9992,2 50176  53.2148 104.4361 0003014  27.1844 332.9306 15.08846871 59915,6917.859,95.437,541.809,537.639,0.0
50176.0,STARLINK-3293,PAYLOAD,2022-12-25 14:57:39,15.08831142,0.0003044,53.2148,101.7595,28.0237,332.0918,-2.9545e-05,-7.59e-06,0.0,0 STARLINK-3293,1 50176U 21125W   22359.62337234 -.00000759  00000-0 -29545-4 0  9993,2 50176  53.2148 101.7595 0003044  28.0237 332.0918 15.08831142 56870,6917.906999999997,95.438,541.878,537.6669999999998,0.0
50176.0,STARLINK-3293,PAYLOAD,2022-12-26 13:13:03,15.08840875,0.0002875,53.2155,97.596,27.6131,332.5014,-5.230100000000001e-05,-1.121e-05,0.0,0 STARLINK-3293,1 50176U 21125W   22360.55073055 -.00001121  00000-0 -52301-4 0  9995,2 50176  53.2155  97.5960 0002875  27.6131 332.5014 15.08840875 60145,6917.878000000002,95.437,541.732,537.754,0.0
50176.0,STARLINK-3293,PAYLOAD,2022-12-26 16:23:49,15.088412900000002,0.0003203,53.2152,97.0013,26.0205,334.0948,2.1402e-05,5.2e-07,0.0,0 STARLINK-3293,1 50176U 21125W   22360.68320923  .00000052  00000-0  21402-4 0  9996,2 50176  53.2152  97.0013 0003203  26.0205 334.0948 15.08841290 57036,6917.876,95.437,541.957,537.526,0.0
50176.0,STARLINK-3293,PAYLOAD,2022-12-27 13:03:48,15.08847524,0.0002945,53.2151,93.1363,25.3934,334.7202,0.00034565,5.218e-05,0.0,0 STARLINK-3293,1 50176U 21125W   22361.54431593  .00005218  00000-0  34565-3 0  9990,2 50176  53.2151  93.1363 0002945  25.3934 334.7202 15.08847524 57163,6917.857,95.437,541.76,537.685,0.0
50176.0,STARLINK-3293,PAYLOAD,2022-12-27 16:14:35,15.088508,0.0002837,53.2159,92.5414,24.4622,335.6504,0.00017265,2.461e-05,0.0,0 STARLINK-3293,1 50176U 21125W   22361.67679608  .00002461  00000-0  17265-3 0  9990,2 50176  53.2159  92.5414 0002837  24.4622 335.6504 15.08850800 60312,6917.847,95.437,541.675,537.75,0.0
50176.0,STARLINK-3293,PAYLOAD,2022-12-28 09:43:49,15.08846528,0.0003103,53.2152,89.27,23.5218,336.5916,0.0001966999999999,2.844e-05,0.0,0 STARLINK-3293,1 50176U 21125W   22362.40543679  .00002844  00000-0  19670-3 0  9997,2 50176  53.2152  89.2700 0003103  23.5218 336.5916 15.08846528 60425,6917.86,95.437,541.872,537.5790000000002,0.0
50176.0,STARLINK-3293,PAYLOAD,2022-12-28 22:26:55,15.08831941,0.0003225,53.2142,86.8918,23.2543,336.8595,-0.00018753,-3.272e-05,0.0,0 STARLINK-3293,1 50176U 21125W   22362.93536494 -.00003272  00000-0 -18753-3 0  9991,2 50176  53.2142  86.8918 0003225  23.2543 336.8595 15.08831941 57370,6917.905,95.438,542.001,537.539,0.0
50176.0,STARLINK-3293,PAYLOAD,2022-12-29 12:45:25,15.08823961,0.0003086999999999,53.2153,84.2163,21.2598,338.8522,-0.00020524,-3.552e-05,0.0,0 STARLINK-3293,1 50176U 21125W   22363.53154169 -.00003552  00000-0 -20524-3 0  9993,2 50176  53.2153  84.2163 0003087  21.2598 338.8522 15.08823961 57465,6917.929,95.439,541.93,537.659,0.0
50176.0,STARLINK-3293,PAYLOAD,2022-12-30 12:36:12,15.08829704,0.0003253,53.2156,79.75399999999998,19.7178,340.3939,0.00023064,3.383e-05,0.0,0 STARLINK-3293,1 50176U 21125W   22364.52514106  .00003383  00000-0  23064-3 0  9996,2 50176  53.2156  79.7540 0003253  19.7178 340.3939 15.08829704 57615,6917.9119999999975,95.438,542.0269999999998,537.526,0.0
